<?xml version="1.0" encoding="UTF-8"?>
<ndm xmlns:xsi="http://www.w3.org/2001/XMLSchema-instance" xsi:noNamespaceSchemaLocation="https://sanaregistry.org/r/ndmxml_unqualified/ndmxml-2.0.0-master-2.0.xsd">
<omm id="CCSDS_OMM_VERS" version="2.0">
<header><CREATION_DATE/><ORIGINATOR/></header><body><segment><metadata><OBJECT_NAME>ONEWEB-0158</OBJECT_NAME><OBJECT_ID>2021-025N</OBJECT_ID><CENTER_NAME>EARTH</CENTER_NAME><REF_FRAME>TEME</REF_FRAME><TIME_SYSTEM>UTC</TIME_SYSTEM><MEAN_ELEMENT_THEORY>SGP4</MEAN_ELEMENT_THEORY></metadata><data><meanElements><EPOCH>2025-12-04T02:43:41.609856</EPOCH><MEAN_MOTION>13.13470601</MEAN_MOTION><ECCENTRICITY>.0002079</ECCENTRICITY><INCLINATION>87.8990</INCLINATION><RA_OF_ASC_NODE>358.9820</RA_OF_ASC_NODE><ARG_OF_PERICENTER>93.4118</ARG_OF_PERICENTER><MEAN_ANOMALY>266.7249</MEAN_ANOMALY></meanElements><tleParameters><EPHEMERIS_TYPE>0</EPHEMERIS_TYPE><CLASSIFICATION_TYPE>U</CLASSIFICATION_TYPE><NORAD_CAT_ID>48054</NORAD_CAT_ID><ELEMENT_SET_NO>999</ELEMENT_SET_NO><REV_AT_EPOCH>22802</REV_AT_EPOCH><BSTAR>.27448E-3</BSTAR><MEAN_MOTION_DOT>.113E-5</MEAN_MOTION_DOT><MEAN_MOTION_DDOT>0</MEAN_MOTION_DDOT></tleParameters></data></segment></body></omm>
<omm id="CCSDS_OMM_VERS" version="2.0">
<header><CREATION_DATE/><ORIGINATOR/></header><body><segment><metadata><OBJECT_NAME>ONEWEB-0157</OBJECT_NAME><OBJECT_ID>2021-025P</OBJECT_ID><CENTER_NAME>EARTH</CENTER_NAME><REF_FRAME>TEME</REF_FRAME><TIME_SYSTEM>UTC</TIME_SYSTEM><MEAN_ELEMENT_THEORY>SGP4</MEAN_ELEMENT_THEORY></metadata><data><meanElements><EPOCH>2025-12-04T01:30:33.944832</EPOCH><MEAN_MOTION>13.13469683</MEAN_MOTION><ECCENTRICITY>.0001498</ECCENTRICITY><INCLINATION>87.8988</INCLINATION><RA_OF_ASC_NODE>358.9986</RA_OF_ASC_NODE><ARG_OF_PERICENTER>81.6921</ARG_OF_PERICENTER><MEAN_ANOMALY>278.4378</MEAN_ANOMALY></meanElements><tleParameters><EPHEMERIS_TYPE>0</EPHEMERIS_TYPE><CLASSIFICATION_TYPE>U</CLASSIFICATION_TYPE><NORAD_CAT_ID>48055</NORAD_CAT_ID><ELEMENT_SET_NO>999</ELEMENT_SET_NO><REV_AT_EPOCH>22795</REV_AT_EPOCH><BSTAR>.8904E-3</BSTAR><MEAN_MOTION_DOT>.338E-5</MEAN_MOTION_DOT><MEAN_MOTION_DDOT>0</MEAN_MOTION_DDOT></tleParameters></data></segment></body></omm>
<omm id="CCSDS_OMM_VERS" version="2.0">
<header><CREATION_DATE/><ORIGINATOR/></header><body><segment><metadata><OBJECT_NAME>ONEWEB-0162</OBJECT_NAME><OBJECT_ID>2021-025Q</OBJECT_ID><CENTER_NAME>EARTH</CENTER_NAME><REF_FRAME>TEME</REF_FRAME><TIME_SYSTEM>UTC</TIME_SYSTEM><MEAN_ELEMENT_THEORY>SGP4</MEAN_ELEMENT_THEORY></metadata><data><meanElements><EPOCH>2025-12-04T02:45:55.651680</EPOCH><MEAN_MOTION>13.13472549</MEAN_MOTION><ECCENTRICITY>.0001605</ECCENTRICITY><INCLINATION>87.8992</INCLINATION><RA_OF_ASC_NODE>358.9899</RA_OF_ASC_NODE><ARG_OF_PERICENTER>96.2255</ARG_OF_PERICENTER><MEAN_ANOMALY>263.9057</MEAN_ANOMALY></meanElements><tleParameters><EPHEMERIS_TYPE>0</EPHEMERIS_TYPE><CLASSIFICATION_TYPE>U</CLASSIFICATION_TYPE><NORAD_CAT_ID>48056</NORAD_CAT_ID><ELEMENT_SET_NO>999</ELEMENT_SET_NO><REV_AT_EPOCH>22793</REV_AT_EPOCH><BSTAR>.45416E-3</BSTAR><MEAN_MOTION_DOT>.179E-5</MEAN_MOTION_DOT><MEAN_MOTION_DDOT>0</MEAN_MOTION_DDOT></tleParameters></data></segment></body></omm>
<omm id="CCSDS_OMM_VERS" version="2.0">
<header><CREATION_DATE/><ORIGINATOR/></header><body><segment><metadata><OBJECT_NAME>ONEWEB-0155</OBJECT_NAME><OBJECT_ID>2021-025R</OBJECT_ID><CENTER_NAME>EARTH</CENTER_NAME><REF_FRAME>TEME</REF_FRAME><TIME_SYSTEM>UTC</TIME_SYSTEM><MEAN_ELEMENT_THEORY>SGP4</MEAN_ELEMENT_THEORY></metadata><data><meanElements><EPOCH>2025-12-04T02:55:52.343904</EPOCH><MEAN_MOTION>13.13472660</MEAN_MOTION><ECCENTRICITY>.0001783</ECCENTRICITY><INCLINATION>87.8986</INCLINATION><RA_OF_ASC_NODE>358.9935</RA_OF_ASC_NODE><ARG_OF_PERICENTER>87.0592</ARG_OF_PERICENTER><MEAN_ANOMALY>273.0742</MEAN_ANOMALY></meanElements><tleParameters><EPHEMERIS_TYPE>0</EPHEMERIS_TYPE><CLASSIFICATION_TYPE>U</CLASSIFICATION_TYPE><NORAD_CAT_ID>48057</NORAD_CAT_ID><ELEMENT_SET_NO>999</ELEMENT_SET_NO><REV_AT_EPOCH>22807</REV_AT_EPOCH><BSTAR>.90294E-3</BSTAR><MEAN_MOTION_DOT>.343E-5</MEAN_MOTION_DOT><MEAN_MOTION_DDOT>0</MEAN_MOTION_DDOT></tleParameters></data></segment></body></omm>
<omm id="CCSDS_OMM_VERS" version="2.0">
<header><CREATION_DATE/><ORIGINATOR/></header><body><segment><metadata><OBJECT_NAME>ONEWEB-0149</OBJECT_NAME><OBJECT_ID>2021-025S</OBJECT_ID><CENTER_NAME>EARTH</CENTER_NAME><REF_FRAME>TEME</REF_FRAME><TIME_SYSTEM>UTC</TIME_SYSTEM><MEAN_ELEMENT_THEORY>SGP4</MEAN_ELEMENT_THEORY></metadata><data><meanElements><EPOCH>2025-12-04T03:27:34.053696</EPOCH><MEAN_MOTION>13.13470558</MEAN_MOTION><ECCENTRICITY>.0001581</ECCENTRICITY><INCLINATION>87.8988</INCLINATION><RA_OF_ASC_NODE>358.9832</RA_OF_ASC_NODE><ARG_OF_PERICENTER>98.8602</ARG_OF_PERICENTER><MEAN_ANOMALY>261.2706</MEAN_ANOMALY></meanElements><tleParameters><EPHEMERIS_TYPE>0</EPHEMERIS_TYPE><CLASSIFICATION_TYPE>U</CLASSIFICATION_TYPE><NORAD_CAT_ID>48058</NORAD_CAT_ID><ELEMENT_SET_NO>999</ELEMENT_SET_NO><REV_AT_EPOCH>22788</REV_AT_EPOCH><BSTAR>.61104E-3</BSTAR><MEAN_MOTION_DOT>.236E-5</MEAN_MOTION_DOT><MEAN_MOTION_DDOT>0</MEAN_MOTION_DDOT></tleParameters></data></segment></body></omm>
<omm id="CCSDS_OMM_VERS" version="2.0">
<header><CREATION_DATE/><ORIGINATOR/></header><body><segment><metadata><OBJECT_NAME>ONEWEB-0148</OBJECT_NAME><OBJECT_ID>2021-025T</OBJECT_ID><CENTER_NAME>EARTH</CENTER_NAME><REF_FRAME>TEME</REF_FRAME><TIME_SYSTEM>UTC</TIME_SYSTEM><MEAN_ELEMENT_THEORY>SGP4</MEAN_ELEMENT_THEORY></metadata><data><meanElements><EPOCH>2025-12-04T02:33:56.312928</EPOCH><MEAN_MOTION>13.13471288</MEAN_MOTION><ECCENTRICITY>.0001224</ECCENTRICITY><INCLINATION>87.8982</INCLINATION><RA_OF_ASC_NODE>359.0105</RA_OF_ASC_NODE><ARG_OF_PERICENTER>105.7924</ARG_OF_PERICENTER><MEAN_ANOMALY>254.3340</MEAN_ANOMALY></meanElements><tleParameters><EPHEMERIS_TYPE>0</EPHEMERIS_TYPE><CLASSIFICATION_TYPE>U</CLASSIFICATION_TYPE><NORAD_CAT_ID>48059</NORAD_CAT_ID><ELEMENT_SET_NO>999</ELEMENT_SET_NO><REV_AT_EPOCH>22800</REV_AT_EPOCH><BSTAR>-.74136E-5</BSTAR><MEAN_MOTION_DOT>.1E-6</MEAN_MOTION_DOT><MEAN_MOTION_DDOT>0</MEAN_MOTION_DDOT></tleParameters></data></segment></body></omm>
<omm id="CCSDS_OMM_VERS" version="2.0">
<header><CREATION_DATE/><ORIGINATOR/></header><body><segment><metadata><OBJECT_NAME>ONEWEB-0160</OBJECT_NAME><OBJECT_ID>2021-025U</OBJECT_ID><CENTER_NAME>EARTH</CENTER_NAME><REF_FRAME>TEME</REF_FRAME><TIME_SYSTEM>UTC</TIME_SYSTEM><MEAN_ELEMENT_THEORY>SGP4</MEAN_ELEMENT_THEORY></metadata><data><meanElements><EPOCH>2025-12-04T02:58:19.578144</EPOCH><MEAN_MOTION>13.13470827</MEAN_MOTION><ECCENTRICITY>.0002472</ECCENTRICITY><INCLINATION>87.8980</INCLINATION><RA_OF_ASC_NODE>359.0045</RA_OF_ASC_NODE><ARG_OF_PERICENTER>103.2115</ARG_OF_PERICENTER><MEAN_ANOMALY>256.9290</MEAN_ANOMALY></meanElements><tleParameters><EPHEMERIS_TYPE>0</EPHEMERIS_TYPE><CLASSIFICATION_TYPE>U</CLASSIFICATION_TYPE><NORAD_CAT_ID>48060</NORAD_CAT_ID><ELEMENT_SET_NO>999</ELEMENT_SET_NO><REV_AT_EPOCH>22795</REV_AT_EPOCH><BSTAR>.10107E-2</BSTAR><MEAN_MOTION_DOT>.382E-5</MEAN_MOTION_DOT><MEAN_MOTION_DDOT>0</MEAN_MOTION_DDOT></tleParameters></data></segment></body></omm>
<omm id="CCSDS_OMM_VERS" version="2.0">
<header><CREATION_DATE/><ORIGINATOR/></header><body><segment><metadata><OBJECT_NAME>ONEWEB-0163</OBJECT_NAME><OBJECT_ID>2021-025V</OBJECT_ID><CENTER_NAME>EARTH</CENTER_NAME><REF_FRAME>TEME</REF_FRAME><TIME_SYSTEM>UTC</TIME_SYSTEM><MEAN_ELEMENT_THEORY>SGP4</MEAN_ELEMENT_THEORY></metadata><data><meanElements><EPOCH>2025-12-04T00:46:39.690048</EPOCH><MEAN_MOTION>13.13468104</MEAN_MOTION><ECCENTRICITY>.0001575</ECCENTRICITY><INCLINATION>87.8988</INCLINATION><RA_OF_ASC_NODE>359.0083</RA_OF_ASC_NODE><ARG_OF_PERICENTER>84.5303</ARG_OF_PERICENTER><MEAN_ANOMALY>275.6006</MEAN_ANOMALY></meanElements><tleParameters><EPHEMERIS_TYPE>0</EPHEMERIS_TYPE><CLASSIFICATION_TYPE>U</CLASSIFICATION_TYPE><NORAD_CAT_ID>48061</NORAD_CAT_ID><ELEMENT_SET_NO>999</ELEMENT_SET_NO><REV_AT_EPOCH>22806</REV_AT_EPOCH><BSTAR>.68708E-4</BSTAR><MEAN_MOTION_DOT>.38E-6</MEAN_MOTION_DOT><MEAN_MOTION_DDOT>0</MEAN_MOTION_DDOT></tleParameters></data></segment></body></omm>

</ndm>
