ONEWEB-0158             
1 48054U 21025N   25338.11367604  .00000113  00000+0  27448-3 0  9992
2 48054  87.8990 358.9820 0002079  93.4118 266.7249 13.13470601228029
ONEWEB-0157             
1 48055U 21025P   25338.06289288  .00000338  00000+0  89040-3 0  9993
2 48055  87.8988 358.9986 0001498  81.6921 278.4378 13.13469683227957
ONEWEB-0162             
1 48056U 21025Q   25338.11522745  .00000179  00000+0  45416-3 0  9990
2 48056  87.8992 358.9899 0001605  96.2255 263.9057 13.13472549227934
ONEWEB-0155             
1 48057U 21025R   25338.12213361  .00000343  00000+0  90294-3 0  9990
2 48057  87.8986 358.9935 0001783  87.0592 273.0742 13.13472660228071
ONEWEB-0149             
1 48058U 21025S   25338.14414414  .00000236  00000+0  61104-3 0  9994
2 48058  87.8988 358.9832 0001581  98.8602 261.2706 13.13470558227889
ONEWEB-0148             
1 48059U 21025T   25338.10690177  .00000010  00000+0 -74136-5 0  9995
2 48059  87.8982 359.0105 0001224 105.7924 254.3340 13.13471288228001
ONEWEB-0160             
1 48060U 21025U   25338.12383771  .00000382  00000+0  10107-2 0  9994
2 48060  87.8980 359.0045 0002472 103.2115 256.9290 13.13470827227958
ONEWEB-0163             
1 48061U 21025V   25338.03240382  .00000038  00000+0  68708-4 0  9995
2 48061  87.8988 359.0083 0001575  84.5303 275.6006 13.13468104228063
